{
    "links": {
        "self": "http://www.neowsapp.com/rest/v1/neo/3634276?api_key=iIulBulltgU6a56xZRHN4H3l9WmuAYTsLGpBGhQ2"
    },
    "id": "3634276",
    "neo_reference_id": "3634276",
    "name": "(2013 GH23)",
    "designation": "2013 GH23",
    "nasa_jpl_url": "http://ssd.jpl.nasa.gov/sbdb.cgi?sstr=3634276",
    "absolute_magnitude_h": 25.7,
    "estimated_diameter": {
        "kilometers": {
            "estimated_diameter_min": 0.0192555078,
            "estimated_diameter_max": 0.0430566244
        },
        "meters": {
            "estimated_diameter_min": 19.2555078188,
            "estimated_diameter_max": 43.0566244241
        },
        "miles": {
            "estimated_diameter_min": 0.0119648141,
            "estimated_diameter_max": 0.0267541378
        },
        "feet": {
            "estimated_diameter_min": 63.1742402722,
            "estimated_diameter_max": 141.2618956756
        }
    },
    "is_potentially_hazardous_asteroid": false,
    "close_approach_data": [
        {
            "close_approach_date": "2013-04-19",
            "close_approach_date_full": "2013-Apr-19 14:14",
            "epoch_date_close_approach": 1366380840000,
            "relative_velocity": {
                "kilometers_per_second": "10.6189446334",
                "kilometers_per_hour": "38228.2006803923",
                "miles_per_hour": "23753.5172505471"
            },
            "miss_distance": {
                "astronomical": "0.0140413196",
                "lunar": "5.4620733244",
                "kilometers": "2100551.504149252",
                "miles": "1305222.1807215976"
            },
            "orbiting_body": "Earth"
        }
    ],
    "orbital_data": {
        "orbit_id": "8",
        "orbit_determination_date": "2017-04-06 08:46:15",
        "first_observation_date": "2013-04-07",
        "last_observation_date": "2013-04-13",
        "data_arc_in_days": 6,
        "observations_used": 17,
        "orbit_uncertainty": "8",
        "minimum_orbit_intersection": ".0131149",
        "jupiter_tisserand_invariant": "3.756",
        "epoch_osculation": "2456390.5",
        "eccentricity": ".5175692324493838",
        "semi_major_axis": "1.913923229895168",
        "inclination": "2.068081760999902",
        "ascending_node_longitude": "231.2666231654268",
        "orbital_period": "967.1307620043597",
        "perihelion_distance": ".9233354528312805",
        "perihelion_argument": "18.92826849152853",
        "aphelion_distance": "2.904511006959056",
        "perihelion_time": "2456433.423759558434",
        "mean_anomaly": "344.0222707744182",
        "mean_motion": ".3722350835515841",
        "equinox": "J2000",
        "orbit_class": {
            "orbit_class_type": "APO",
            "orbit_class_description": "Near-Earth asteroid orbits which cross the Earth’s orbit similar to that of 1862 Apollo",
            "orbit_class_range": "a (semi-major axis) > 1.0 AU; q (perihelion) < 1.017 AU"
        }
    },
    "is_sentry_object": false
}